[
    {
        "Altitude(m)": 571842.6470225181,
        "Argument of Periapsis(deg)": 0.013245982221427002,
        "Eccentricity": 0.0,
        "Inclination(deg)": 53.0,
        "Latitude(deg)": -53.144782553562756,
        "Longitude(deg)": 152.24167277935115,
        "Mean Anomaly(deg)": -90.72591426484482,
        "RAAN(deg)": 344.9802867370561,
        "Satellite Name": "Starlink Shell 1 1533",
        "Satellite Number": 1533,
        "Semi-Major Axis(m)": 6931778.249405717,
        "Time(s)": 380
    },
    {
        "Altitude(m)": 571844.7874204831,
        "Argument of Periapsis(deg)": 0.013594560700938237,
        "Eccentricity": 0.0,
        "Inclination(deg)": 53.0,
        "Latitude(deg)": -53.15054687345066,
        "Longitude(deg)": 153.23901041903991,
        "Mean Anomaly(deg)": -90.09908306128811,
        "RAAN(deg)": 344.97976796697856,
        "Satellite Name": "Starlink Shell 1 1533",
        "Satellite Number": 1533,
        "Semi-Major Axis(m)": 6931778.249405717,
        "Time(s)": 390
    },
    {
        "Altitude(m)": 571843.4467048445,
        "Argument of Periapsis(deg)": 0.013943139180449475,
        "Eccentricity": 0.0,
        "Inclination(deg)": 53.0,
        "Latitude(deg)": -53.14725706507425,
        "Longitude(deg)": 154.23640751847262,
        "Mean Anomaly(deg)": -89.47225185773148,
        "RAAN(deg)": 344.9792491969011,
        "Satellite Name": "Starlink Shell 1 1533",
        "Satellite Number": 1533,
        "Semi-Major Axis(m)": 6931778.249405717,
        "Time(s)": 400
    },
    {
        "Altitude(m)": 571838.6253893599,
        "Argument of Periapsis(deg)": 0.014291717659960712,
        "Eccentricity": 0.0,
        "Inclination(deg)": 53.0,
        "Latitude(deg)": -53.13491556923073,
        "Longitude(deg)": 155.23342839047243,
        "Mean Anomaly(deg)": -88.84542065417463,
        "RAAN(deg)": 344.97873042682363,
        "Satellite Name": "Starlink Shell 1 1533",
        "Satellite Number": 1533,
        "Semi-Major Axis(m)": 6931778.249405717,
        "Time(s)": 410
    },
    {
        "Altitude(m)": 571830.3253772676,
        "Argument of Periapsis(deg)": 0.014640296139471948,
        "Eccentricity": 0.0,
        "Inclination(deg)": 53.0,
        "Latitude(deg)": -53.113531536290154,
        "Longitude(deg)": 156.22963796947445,
        "Mean Anomaly(deg)": -88.21858945061798,
        "RAAN(deg)": 344.97821165674617,
        "Satellite Name": "Starlink Shell 1 1533",
        "Satellite Number": 1533,
        "Semi-Major Axis(m)": 6931778.249405717,
        "Time(s)": 420
    },
    {
        "Altitude(m)": 571818.5499604464,
        "Argument of Periapsis(deg)": 0.014988874618983185,
        "Eccentricity": 0.0,
        "Inclination(deg)": 53.0,
        "Latitude(deg)": -53.0831207926884,
        "Longitude(deg)": 157.22460361188922,
        "Mean Anomaly(deg)": -87.59175824706129,
        "RAAN(deg)": 344.97769288666865,
        "Satellite Name": "Starlink Shell 1 1533",
        "Satellite Number": 1533,
        "Semi-Major Axis(m)": 6931778.249405717,
        "Time(s)": 430
    },
    {
        "Altitude(m)": 571803.3038180101,
        "Argument of Periapsis(deg)": 0.015337453098494424,
        "Eccentricity": 0.0,
        "Inclination(deg)": 53.0,
        "Latitude(deg)": -53.043705783150976,
        "Longitude(deg)": 158.2178968787074,
        "Mean Anomaly(deg)": -86.96492704350455,
        "RAAN(deg)": 344.97717411659124,
        "Satellite Name": "Starlink Shell 1 1533",
        "Satellite Number": 1533,
        "Semi-Major Axis(m)": 6931778.249405717,
        "Time(s)": 440
    },
    {
        "Altitude(m)": 571784.59301427,
        "Argument of Periapsis(deg)": 0.01568603157800566,
        "Eccentricity": 0.0,
        "Inclination(deg)": 53.0,
        "Latitude(deg)": -52.99531548913824,
        "Longitude(deg)": 159.2090937782421,
        "Mean Anomaly(deg)": -86.3380958399478,
        "RAAN(deg)": 344.9766553465138,
        "Satellite Name": "Starlink Shell 1 1533",
        "Satellite Number": 1533,
        "Semi-Major Axis(m)": 6931778.249405717,
        "Time(s)": 450
    },
    {
        "Altitude(m)": 571762.4249961367,
        "Argument of Periapsis(deg)": 0.0160346100575169,
        "Eccentricity": 0.0,
        "Inclination(deg)": 53.0,
        "Latitude(deg)": -52.93798532420951,
        "Longitude(deg)": 160.19777648588277,
        "Mean Anomaly(deg)": -85.7112646363911,
        "RAAN(deg)": 344.97613657643626,
        "Satellite Name": "Starlink Shell 1 1533",
        "Satellite Number": 1533,
        "Semi-Major Axis(m)": 6931778.249405717,
        "Time(s)": 460
    },
    {
        "Altitude(m)": 571736.8085898978,
        "Argument of Periapsis(deg)": 0.016383188537028134,
        "Eccentricity": 0.0,
        "Inclination(deg)": 53.0,
        "Latitude(deg)": -52.87175700718282,
        "Longitude(deg)": 161.18353501960127,
        "Mean Anomaly(deg)": -85.0844334328344,
        "RAAN(deg)": 344.9756178063588,
        "Satellite Name": "Starlink Shell 1 1533",
        "Satellite Number": 1533,
        "Semi-Major Axis(m)": 6931778.249405717,
        "Time(s)": 470
    },
    {
        "Altitude(m)": 571707.7539973869,
        "Argument of Periapsis(deg)": 0.01673176701653937,
        "Eccentricity": 0.0,
        "Inclination(deg)": 53.0,
        "Latitude(deg)": -52.796678414143265,
        "Longitude(deg)": 162.16596735053724,
        "Mean Anomaly(deg)": -84.45760222927771,
        "RAAN(deg)": 344.97509903628134,
        "Satellite Name": "Starlink Shell 1 1533",
        "Satellite Number": 1533,
        "Semi-Major Axis(m)": 6931778.249405717,
        "Time(s)": 480
    },
    {
        "Altitude(m)": 571675.2727916037,
        "Argument of Periapsis(deg)": 0.017080345496050607,
        "Eccentricity": 0.0,
        "Inclination(deg)": 53.0,
        "Latitude(deg)": -52.71280341051842,
        "Longitude(deg)": 163.14468096729183,
        "Mean Anomaly(deg)": -83.83077102572092,
        "RAAN(deg)": 344.9745802662039,
        "Satellite Name": "Starlink Shell 1 1533",
        "Satellite Number": 1533,
        "Semi-Major Axis(m)": 6931778.249405717,
        "Time(s)": 490
    },
    {
        "Altitude(m)": 571639.3779116886,
        "Argument of Periapsis(deg)": 0.017428923975561842,
        "Eccentricity": 0.0,
        "Inclination(deg)": 53.0,
        "Latitude(deg)": -52.62019166457397,
        "Longitude(deg)": 164.119294374692,
        "Mean Anomaly(deg)": -83.20393982216432,
        "RAAN(deg)": 344.9740614961264,
        "Satellite Name": "Starlink Shell 1 1533",
        "Satellite Number": 1533,
        "Semi-Major Axis(m)": 6931778.249405717,
        "Time(s)": 500
    },
    {
        "Altitude(m)": 571600.0836573364,
        "Argument of Periapsis(deg)": 0.01777750245507308,
        "Eccentricity": 0.0,
        "Inclination(deg)": 53.0,
        "Latitude(deg)": -52.51890844380488,
        "Longitude(deg)": 165.089437008624,
        "Mean Anomaly(deg)": -82.57710861860753,
        "RAAN(deg)": 344.9735427260489,
        "Satellite Name": "Starlink Shell 1 1533",
        "Satellite Number": 1533,
        "Semi-Major Axis(m)": 6931778.249405717,
        "Time(s)": 510
    },
    {
        "Altitude(m)": 571557.4056826158,
        "Argument of Periapsis(deg)": 0.018126080934584315,
        "Eccentricity": 0.0,
        "Inclination(deg)": 53.0,
        "Latitude(deg)": -52.4090243958069,
        "Longitude(deg)": 166.05475058800687,
        "Mean Anomaly(deg)": -81.95027741505078,
        "RAAN(deg)": 344.9730239559714,
        "Satellite Name": "Starlink Shell 1 1533",
        "Satellite Number": 1533,
        "Semi-Major Axis(m)": 6931778.249405717,
        "Time(s)": 520
    },
    {
        "Altitude(m)": 571511.3609891849,
        "Argument of Periapsis(deg)": 0.018474659414095554,
        "Eccentricity": 0.0,
        "Inclination(deg)": 53.0,
        "Latitude(deg)": -52.29061531527332,
        "Longitude(deg)": 167.01489038737785,
        "Mean Anomaly(deg)": -81.32344621149413,
        "RAAN(deg)": 344.97250518589397,
        "Satellite Name": "Starlink Shell 1 1533",
        "Satellite Number": 1533,
        "Semi-Major Axis(m)": 6931778.249405717,
        "Time(s)": 530
    },
    {
        "Altitude(m)": 571461.9679189634,
        "Argument of Periapsis(deg)": 0.018823237893606792,
        "Eccentricity": 0.0,
        "Inclination(deg)": 53.0,
        "Latitude(deg)": -52.16376189890546,
        "Longitude(deg)": 167.9695249137707,
        "Mean Anomaly(deg)": -80.69661500793744,
        "RAAN(deg)": 344.9719864158165,
        "Satellite Name": "Starlink Shell 1 1533",
        "Satellite Number": 1533,
        "Semi-Major Axis(m)": 6931778.249405717,
        "Time(s)": 540
    },
    {
        "Altitude(m)": 571409.2461461535,
        "Argument of Periapsis(deg)": 0.019171816373118027,
        "Eccentricity": 0.0,
        "Inclination(deg)": 53.0,
        "Latitude(deg)": -52.028549489828144,
        "Longitude(deg)": 168.91833701312956,
        "Mean Anomaly(deg)": -80.06978380438069,
        "RAAN(deg)": 344.971467645739,
        "Satellite Name": "Starlink Shell 1 1533",
        "Satellite Number": 1533,
        "Semi-Major Axis(m)": 6931778.249405717,
        "Time(s)": 550
    },
    {
        "Altitude(m)": 571353.216668757,
        "Argument of Periapsis(deg)": 0.019520394852629266,
        "Eccentricity": 0.0,
        "Inclination(deg)": 53.0,
        "Latitude(deg)": -51.88506781349677,
        "Longitude(deg)": 169.86102489050558,
        "Mean Anomaly(deg)": -79.44295260082394,
        "RAAN(deg)": 344.9709488756616,
        "Satellite Name": "Starlink Shell 1 1533",
        "Satellite Number": 1533,
        "Semi-Major Axis(m)": 6931778.249405717,
        "Time(s)": 560
    }
]